{"type": "FeatureCollection", "features": [ {"type": "Feature", "properties": {"norad_id": 34823, "name": "COSMOS 2251 DEB", "group": "cosmos-2251-debris", "lat": -17.722734475966373, "lon": -93.233278371673, "alt_km": 623.8307687264632, "timestamp": "2025-12-23T16:57:12.750077+00:00", "meta": {"OBJECT_NAME": "COSMOS 2251 DEB", "OBJECT_ID": "1993-036ABN", "EPOCH": "2025-12-22T23:32:59.618976", "MEAN_MOTION": 14.54990022, "ECCENTRICITY": 0.01539908, "INCLINATION": 74.0418, "RA_OF_ASC_NODE": 82.8922, "ARG_OF_PERICENTER": 165.1039, "MEAN_ANOMALY": 195.4739, "EPHEMERIS_TYPE": 0, "CLASSIFICATION_TYPE": "U", "NORAD_CAT_ID": 34823, "ELEMENT_SET_NO": 999, "REV_AT_EPOCH": 88530, "BSTAR": 0.00056765995, "MEAN_MOTION_DOT": 2.835e-05, "MEAN_MOTION_DDOT": 0}, "tle": {"line1": "1 34823U 93036ABN 25356.98124559  .00002835  00000+0  56766-3 0  9995", "line2": "2 34823  74.0418  82.8922 0153990 165.1039 195.4739 14.54990022885307"}}, "geometry": {"type": "Point", "coordinates": [-93.233278371673, -17.722734475966373]}}, {"type": "Feature", "properties": {"norad_id": 34845, "name": "COSMOS 2251 DEB", "group": "cosmos-2251-debris", "lat": 12.760507829471798, "lon": -55.8375418451912, "alt_km": 748.0124489775453, "timestamp": "2025-12-23T16:57:12.750087+00:00", "meta": {"OBJECT_NAME": "COSMOS 2251 DEB", "OBJECT_ID": "1993-036ABP", "EPOCH": "2025-12-19T17:31:51.884832", "MEAN_MOTION": 14.45872035, "ECCENTRICITY": 0.00225932, "INCLINATION": 74.0244, "RA_OF_ASC_NODE": 135.3011, "ARG_OF_PERICENTER": 295.1391, "MEAN_ANOMALY": 64.7423, "EPHEMERIS_TYPE": 0, "CLASSIFICATION_TYPE": "U", "NORAD_CAT_ID": 34845, "ELEMENT_SET_NO": 999, "REV_AT_EPOCH": 87567, "BSTAR": 0.00020260782, "MEAN_MOTION_DOT": 6.95e-06, "MEAN_MOTION_DDOT": 0}, "tle": {"line1": "1 34845U 93036ABP 25353.73046163  .00000695  00000+0  20261-3 0  9996", "line2": "2 34845  74.0244 135.3011 0022593 295.1391  64.7423 14.45872035875670"}}, "geometry": {"type": "Point", "coordinates": [-55.8375418451912, 12.760507829471798]}}, {"type": "Feature", "properties": {"norad_id": 34846, "name": "COSMOS 2251 DEB", "group": "cosmos-2251-debris", "lat": 18.960478766620966, "lon": 55.62118467115465, "alt_km": 749.9019576715236, "timestamp": "2025-12-23T16:57:12.750097+00:00", "meta": {"OBJECT_NAME": "COSMOS 2251 DEB", "OBJECT_ID": "1993-036ABQ", "EPOCH": "2025-12-22T20:18:23.821920", "MEAN_MOTION": 14.47267478, "ECCENTRICITY": 0.0026216, "INCLINATION": 74.0301, "RA_OF_ASC_NODE": 242.8755, "ARG_OF_PERICENTER": 308.0511, "MEAN_ANOMALY": 51.8282, "EPHEMERIS_TYPE": 0, "CLASSIFICATION_TYPE": "U", "NORAD_CAT_ID": 34846, "ELEMENT_SET_NO": 999, "REV_AT_EPOCH": 87550, "BSTAR": 0.00072003, "MEAN_MOTION_DOT": 2.618e-05, "MEAN_MOTION_DDOT": 0}, "tle": {"line1": "1 34846U 93036ABQ 25356.84610905  .00002618  00000+0  72003-3 0  9991", "line2": "2 34846  74.0301 242.8755 0026216 308.0511  51.8282 14.47267478875501"}}, "geometry": {"type": "Point", "coordinates": [55.62118467115465, 18.960478766620966]}}, {"type": "Feature", "properties": {"norad_id": 34852, "name": "COSMOS 2251 DEB", "group": "cosmos-2251-debris", "lat": -2.5750467971559, "lon": 63.54200321203561, "alt_km": 782.5601608063125, "timestamp": "2025-12-23T16:57:12.750108+00:00", "meta": {"OBJECT_NAME": "COSMOS 2251 DEB", "OBJECT_ID": "1993-036ABW", "EPOCH": "2025-12-22T10:01:54.526080", "MEAN_MOTION": 14.37012127, "ECCENTRICITY": 0.00166159, "INCLINATION": 74.0324, "RA_OF_ASC_NODE": 245.1729, "ARG_OF_PERICENTER": 346.342, "MEAN_ANOMALY": 13.7281, "EPHEMERIS_TYPE": 0, "CLASSIFICATION_TYPE": "U", "NORAD_CAT_ID": 34852, "ELEMENT_SET_NO": 999, "REV_AT_EPOCH": 87673, "BSTAR": 0.00010888477, "MEAN_MOTION_DOT": 2.97e-06, "MEAN_MOTION_DDOT": 0}, "tle": {"line1": "1 34852U 93036ABW 25356.41799220  .00000297  00000+0  10888-3 0  9993", "line2": "2 34852  74.0324 245.1729 0016615 346.3420  13.7281 14.37012127876736"}}, "geometry": {"type": "Point", "coordinates": [63.54200321203561, -2.5750467971559]}}, {"type": "Feature", "properties": {"norad_id": 34854, "name": "COSMOS 2251 DEB", "group": "cosmos-2251-debris", "lat": -29.214607830984182, "lon": -33.699919999736125, "alt_km": 607.7407070477047, "timestamp": "2025-12-23T16:57:12.750118+00:00", "meta": {"OBJECT_NAME": "COSMOS 2251 DEB", "OBJECT_ID": "1993-036ABY", "EPOCH": "2025-12-23T02:59:29.308992", "MEAN_MOTION": 14.76722468, "ECCENTRICITY": 0.00659618, "INCLINATION": 74.0297, "RA_OF_ASC_NODE": 138.2247, "ARG_OF_PERICENTER": 247.8354, "MEAN_ANOMALY": 111.5813, "EPHEMERIS_TYPE": 0, "CLASSIFICATION_TYPE": "U", "NORAD_CAT_ID": 34854, "ELEMENT_SET_NO": 999, "REV_AT_EPOCH": 72035, "BSTAR": 0.00083387478, "MEAN_MOTION_DOT": 6.022e-05, "MEAN_MOTION_DDOT": 0}, "tle": {"line1": "1 34854U 93036ABY 25357.12464478  .00006022  00000+0  83387-3 0  9994", "line2": "2 34854  74.0297 138.2247 0065961 247.8354 111.5813 14.76722468720356"}}, "geometry": {"type": "Point", "coordinates": [-33.699919999736125, -29.214607830984182]}}, {"type": "Feature", "properties": {"norad_id": 34856, "name": "COSMOS 2251 DEB", "group": "cosmos-2251-debris", "lat": 13.930287982091055, "lon": 66.37098839339475, "alt_km": 569.0185489867172, "timestamp": "2025-12-23T16:57:12.750128+00:00", "meta": {"OBJECT_NAME": "COSMOS 2251 DEB", "OBJECT_ID": "1993-036ACA", "EPOCH": "2025-12-23T04:16:28.422336", "MEAN_MOTION": 15.0656191, "ECCENTRICITY": 0.00313591, "INCLINATION": 73.9963, "RA_OF_ASC_NODE": 63.3755, "ARG_OF_PERICENTER": 199.2981, "MEAN_ANOMALY": 191.247, "EPHEMERIS_TYPE": 0, "CLASSIFICATION_TYPE": "U", "NORAD_CAT_ID": 34856, "ELEMENT_SET_NO": 999, "REV_AT_EPOCH": 89269, "BSTAR": 0.0016371438, "MEAN_MOTION_DOT": 0.00024545, "MEAN_MOTION_DDOT": 0}, "tle": {"line1": "1 34856U 93036ACA 25357.17810674  .00024545  00000+0  16371-2 0  9992", "line2": "2 34856  73.9963  63.3755 0031359 199.2981 191.2470 15.06561910892696"}}, "geometry": {"type": "Point", "coordinates": [66.37098839339475, 13.930287982091055]}}, {"type": "Feature", "properties": {"norad_id": 34857, "name": "COSMOS 2251 DEB", "group": "cosmos-2251-debris", "lat": -42.11924318715795, "lon": 70.88964497451849, "alt_km": 716.3433816834659, "timestamp": "2025-12-23T16:57:12.750139+00:00", "meta": {"OBJECT_NAME": "COSMOS 2251 DEB", "OBJECT_ID": "1993-036ACB", "EPOCH": "2025-12-23T05:47:30.772032", "MEAN_MOTION": 14.58991056, "ECCENTRICITY": 0.0065381, "INCLINATION": 74.0156, "RA_OF_ASC_NODE": 86.7975, "ARG_OF_PERICENTER": 209.3076, "MEAN_ANOMALY": 184.1083, "EPHEMERIS_TYPE": 0, "CLASSIFICATION_TYPE": "U", "NORAD_CAT_ID": 34857, "ELEMENT_SET_NO": 999, "REV_AT_EPOCH": 88054, "BSTAR": 0.0010790373, "MEAN_MOTION_DOT": 5.191e-05, "MEAN_MOTION_DDOT": 0}, "tle": {"line1": "1 34857U 93036ACB 25357.24132838  .00005191  00000+0  10790-2 0  9995", "line2": "2 34857  74.0156  86.7975 0065381 209.3076 184.1083 14.58991056880542"}}, "geometry": {"type": "Point", "coordinates": [70.88964497451849, -42.11924318715795]}}, {"type": "Feature", "properties": {"norad_id": 34859, "name": "COSMOS 2251 DEB", "group": "cosmos-2251-debris", "lat": -18.489380764383096, "lon": -48.67711404667339, "alt_km": 520.7550037154997, "timestamp": "2025-12-23T16:57:12.750150+00:00", "meta": {"OBJECT_NAME": "COSMOS 2251 DEB", "OBJECT_ID": "1993-036ACD", "EPOCH": "2025-12-20T00:39:03.765024", "MEAN_MOTION": 15.15832734, "ECCENTRICITY": 0.00020914, "INCLINATION": 74.0278, "RA_OF_ASC_NODE": 324.4843, "ARG_OF_PERICENTER": 20.5726, "MEAN_ANOMALY": 48.6407, "EPHEMERIS_TYPE": 0, "CLASSIFICATION_TYPE": "U", "NORAD_CAT_ID": 34859, "ELEMENT_SET_NO": 999, "REV_AT_EPOCH": 88469, "BSTAR": 0.0027292363, "MEAN_MOTION_DOT": 0.00052535, "MEAN_MOTION_DDOT": 0}, "tle": {"line1": "1 34859U 93036ACD 25354.02712691  .00052535  00000+0  27292-2 0  9990", "line2": "2 34859  74.0278 324.4843 0002091  20.5726  48.6407 15.15832734884694"}}, "geometry": {"type": "Point", "coordinates": [-48.67711404667339, -18.489380764383096]}}, {"type": "Feature", "properties": {"norad_id": 34861, "name": "COSMOS 2251 DEB", "group": "cosmos-2251-debris", "lat": 66.22138410602405, "lon": 167.85599569685814, "alt_km": 550.1749967543838, "timestamp": "2025-12-23T16:57:12.750160+00:00", "meta": {"OBJECT_NAME": "COSMOS 2251 DEB", "OBJECT_ID": "1993-036ACF", "EPOCH": "2025-12-23T02:14:22.682112", "MEAN_MOTION": 15.03174162, "ECCENTRICITY": 0.0008243, "INCLINATION": 74.0166, "RA_OF_ASC_NODE": 29.6908, "ARG_OF_PERICENTER": 19.2129, "MEAN_ANOMALY": 12.2255, "EPHEMERIS_TYPE": 0, "CLASSIFICATION_TYPE": "U", "NORAD_CAT_ID": 34861, "ELEMENT_SET_NO": 999, "REV_AT_EPOCH": 88248, "BSTAR": 0.002584735, "MEAN_MOTION_DOT": 0.0003511, "MEAN_MOTION_DDOT": 0}, "tle": {"line1": "1 34861U 93036ACF 25357.09331808  .00035110  00000+0  25847-2 0  9994", "line2": "2 34861  74.0166  29.6908 0008243  19.2129  12.2255 15.03174162882480"}}, "geometry": {"type": "Point", "coordinates": [167.85599569685814, 66.22138410602405]}}, {"type": "Feature", "properties": {"norad_id": 34874, "name": "COSMOS 2251 DEB", "group": "cosmos-2251-debris", "lat": -44.13608404761227, "lon": 37.503216524090206, "alt_km": 795.7250995327886, "timestamp": "2025-12-23T16:57:12.750171+00:00", "meta": {"OBJECT_NAME": "COSMOS 2251 DEB", "OBJECT_ID": "1993-036ACM", "EPOCH": "2025-12-23T03:56:21.772896", "MEAN_MOTION": 14.36356167, "ECCENTRICITY": 0.00505183, "INCLINATION": 74.0394, "RA_OF_ASC_NODE": 54.6207, "ARG_OF_PERICENTER": 76.4855, "MEAN_ANOMALY": 314.8612, "EPHEMERIS_TYPE": 0, "CLASSIFICATION_TYPE": "U", "NORAD_CAT_ID": 34874, "ELEMENT_SET_NO": 999, "REV_AT_EPOCH": 87194, "BSTAR": 0.00080893897, "MEAN_MOTION_DOT": 2.377e-05, "MEAN_MOTION_DDOT": 0}, "tle": {"line1": "1 34874U 93036ACM 25357.16414089  .00002377  00000+0  80894-3 0  9992", "line2": "2 34874  74.0394  54.6207 0050518  76.4855 314.8612 14.36356167871949"}}, "geometry": {"type": "Point", "coordinates": [37.503216524090206, -44.13608404761227]}}]}